start=new Date('2021-11-03T00:00:00.000Z').valueOf();
sats=[{"NORAD_CAT_ID":"45763","APOAPSIS":"373.536","DECAY_DATE":null,"REF_FRAME":"TEME","ARG_OF_PERICENTER":"11.8503","RCS_SIZE":"LARGE","RA_OF_ASC_NODE":"91.1587","MEAN_MOTION":"15.65866300","PERIAPSIS":"367.965","SEMIMAJOR_AXIS":"6748.885","ECCENTRICITY":"0.00041270","ELEMENT_SET_NO":"999","LAUNCH_DATE":"2020-06-13","MEAN_MOTION_DDOT":"0.0000000000000","TLE_LINE2":"2 45763  53.0529  91.1587 0004127  11.8503 348.2608 15.65866300 78066","MEAN_ELEMENT_THEORY":"SGP4","MEAN_ANOMALY":"348.2608","OBJECT_TYPE":"PAYLOAD","TIME_SYSTEM":"UTC","EPOCH":"2021-11-02T10:52:58.301184","TLE_LINE1":"1 45763U 20038AK  21306.45345256  .00012600  00000-0  12683-3 0  9996","SITE":"AFETR","REV_AT_EPOCH":"7806","CENTER_NAME":"EARTH","FILE":"3197731","GP_ID":"188736183","COUNTRY_CODE":"US","OBJECT_ID":"2020-038AK","OBJECT_NAME":"STARLINK-1501","EPHEMERIS_TYPE":"0","MEAN_MOTION_DOT":"0.00012600","INCLINATION":"53.0529","BSTAR":"0.00012683000000","PERIOD":"91.962","CLASSIFICATION_TYPE":"U"},{"SITE":"AFETR","CENTER_NAME":"EARTH","REV_AT_EPOCH":"7707","FILE":"3197731","GP_ID":"188736931","COUNTRY_CODE":"US","OBJECT_NAME":"STARLINK-1502","OBJECT_ID":"2020-038AL","EPHEMERIS_TYPE":"0","MEAN_MOTION_DOT":"0.00000222","INCLINATION":"53.0524","BSTAR":"0.00003381400000","PERIOD":"95.592","CLASSIFICATION_TYPE":"U","APOAPSIS":"548.617","NORAD_CAT_ID":"45764","DECAY_DATE":null,"ARG_OF_PERICENTER":"76.6246","REF_FRAME":"TEME","RA_OF_ASC_NODE":"147.2806","RCS_SIZE":"LARGE","MEAN_MOTION":"15.06399712","PERIAPSIS":"545.812","ECCENTRICITY":"0.00020250","SEMIMAJOR_AXIS":"6925.349","ELEMENT_SET_NO":"999","LAUNCH_DATE":"2020-06-13","TLE_LINE2":"2 45764  53.0524 147.2806 0002025  76.6246 283.4968 15.06399712 77079","MEAN_MOTION_DDOT":"0.0000000000000","MEAN_ELEMENT_THEORY":"SGP4","MEAN_ANOMALY":"283.4968","OBJECT_TYPE":"PAYLOAD","TIME_SYSTEM":"UTC","EPOCH":"2021-11-02T06:37:37.889472","TLE_LINE1":"1 45764U 20038AL  21306.27613298  .00000222  00000-0  33814-4 0  9998"},{"SITE":"AFETR","REV_AT_EPOCH":"7711","CENTER_NAME":"EARTH","FILE":"3198350","GP_ID":"188771903","COUNTRY_CODE":"US","EPHEMERIS_TYPE":"0","OBJECT_NAME":"STARLINK-1509","OBJECT_ID":"2020-038AN","MEAN_MOTION_DOT":"0.00000222","INCLINATION":"53.0548","BSTAR":"0.00003382200000","PERIOD":"95.593","CLASSIFICATION_TYPE":"U","APOAPSIS":"548.576","NORAD_CAT_ID":"45766","DECAY_DATE":null,"ARG_OF_PERICENTER":"79.2451","REF_FRAME":"TEME","RCS_SIZE":"LARGE","RA_OF_ASC_NODE":"145.5571","MEAN_MOTION":"15.06394093","PERIAPSIS":"545.887","SEMIMAJOR_AXIS":"6925.367","ELEMENT_SET_NO":"999","ECCENTRICITY":"0.00019410","LAUNCH_DATE":"2020-06-13","MEAN_ELEMENT_THEORY":"SGP4","MEAN_ANOMALY":"280.8757","TLE_LINE2":"2 45766  53.0548 145.5571 0001941  79.2451 280.8757 15.06394093 77119","MEAN_MOTION_DDOT":"0.0000000000000","EPOCH":"2021-11-02T15:54:56.397600","OBJECT_TYPE":"PAYLOAD","TIME_SYSTEM":"UTC","TLE_LINE1":"1 45766U 20038AN  21306.66315275  .00000222  00000-0  33822-4 0  9996"},{"MEAN_MOTION":"15.06407098","RA_OF_ASC_NODE":"144.6915","RCS_SIZE":"LARGE","REF_FRAME":"TEME","ARG_OF_PERICENTER":"80.8688","DECAY_DATE":null,"APOAPSIS":"548.415","NORAD_CAT_ID":"45767","TLE_LINE1":"1 45767U 20038AP  21306.85481782  .00003967  00000-0  28499-3 0  9997","EPOCH":"2021-11-02T20:30:56.259648","OBJECT_TYPE":"PAYLOAD","TIME_SYSTEM":"UTC","MEAN_ANOMALY":"279.2500","MEAN_ELEMENT_THEORY":"SGP4","TLE_LINE2":"2 45767  53.0527 144.6915 0001766  80.8688 279.2500 15.06407098 77145","MEAN_MOTION_DDOT":"0.0000000000000","LAUNCH_DATE":"2020-06-13","ECCENTRICITY":"0.00017660","SEMIMAJOR_AXIS":"6925.327","ELEMENT_SET_NO":"999","PERIAPSIS":"545.969","GP_ID":"188772153","FILE":"3198350","CENTER_NAME":"EARTH","REV_AT_EPOCH":"7714","SITE":"AFETR","CLASSIFICATION_TYPE":"U","PERIOD":"95.592","BSTAR":"0.00028499000000","INCLINATION":"53.0527","MEAN_MOTION_DOT":"0.00003967","EPHEMERIS_TYPE":"0","OBJECT_ID":"2020-038AP","OBJECT_NAME":"STARLINK-1511","COUNTRY_CODE":"US"},{"DECAY_DATE":null,"NORAD_CAT_ID":"45768","APOAPSIS":"548.345","MEAN_MOTION":"15.06402081","ARG_OF_PERICENTER":"79.4263","REF_FRAME":"TEME","RCS_SIZE":"LARGE","RA_OF_ASC_NODE":"148.6500","LAUNCH_DATE":"2020-06-13","MEAN_MOTION_DDOT":"0.0000000000000","TLE_LINE2":"2 45768  53.0541 148.6500 0001643  79.4263 280.6911 15.06402081 77940","MEAN_ELEMENT_THEORY":"SGP4","MEAN_ANOMALY":"280.6911","PERIAPSIS":"546.069","SEMIMAJOR_AXIS":"6925.342","ELEMENT_SET_NO":"999","ECCENTRICITY":"0.00016430","TLE_LINE1":"1 45768U 20038AQ  21305.97387368  .00001902  00000-0  14655-3 0  9991","OBJECT_TYPE":"PAYLOAD","TIME_SYSTEM":"UTC","EPOCH":"2021-11-01T23:22:22.685952","REV_AT_EPOCH":"7794","CENTER_NAME":"EARTH","FILE":"3196883","SITE":"AFETR","GP_ID":"188698004","OBJECT_NAME":"STARLINK-1521","OBJECT_ID":"2020-038AQ","EPHEMERIS_TYPE":"0","INCLINATION":"53.0541","MEAN_MOTION_DOT":"0.00001902","COUNTRY_CODE":"US","CLASSIFICATION_TYPE":"U","BSTAR":"0.00014655000000","PERIOD":"95.592"},{"OBJECT_TYPE":"PAYLOAD","TIME_SYSTEM":"UTC","EPOCH":"2021-11-02T22:14:27.386304","TLE_LINE1":"1 45769U 20038AR  21306.92670586  .00000664  00000-0  63509-4 0  9992","SEMIMAJOR_AXIS":"6925.379","ELEMENT_SET_NO":"999","ECCENTRICITY":"0.00018250","PERIAPSIS":"545.980","TLE_LINE2":"2 45769  53.0537 164.3705 0001825  74.3149 285.8041 15.06389979 76880","MEAN_MOTION_DDOT":"0.0000000000000","MEAN_ANOMALY":"285.8041","MEAN_ELEMENT_THEORY":"SGP4","LAUNCH_DATE":"2020-06-13","RA_OF_ASC_NODE":"164.3705","RCS_SIZE":"LARGE","ARG_OF_PERICENTER":"74.3149","REF_FRAME":"TEME","MEAN_MOTION":"15.06389979","NORAD_CAT_ID":"45769","APOAPSIS":"548.508","DECAY_DATE":null,"PERIOD":"95.593","BSTAR":"0.00006350900000","CLASSIFICATION_TYPE":"U","COUNTRY_CODE":"US","MEAN_MOTION_DOT":"0.00000664","INCLINATION":"53.0537","OBJECT_ID":"2020-038AR","OBJECT_NAME":"STARLINK-1459","EPHEMERIS_TYPE":"0","GP_ID":"188773155","SITE":"AFETR","FILE":"3198350","REV_AT_EPOCH":"7688","CENTER_NAME":"EARTH"},{"MEAN_MOTION_DOT":"0.00000870","INCLINATION":"53.0547","EPHEMERIS_TYPE":"0","OBJECT_ID":"2020-038AS","OBJECT_NAME":"STARLINK-1462","COUNTRY_CODE":"US","CLASSIFICATION_TYPE":"U","PERIOD":"95.592","BSTAR":"0.00007733000000","FILE":"3197731","CENTER_NAME":"EARTH","REV_AT_EPOCH":"7736","SITE":"AFETR","GP_ID":"188737177","MEAN_ELEMENT_THEORY":"SGP4","MEAN_ANOMALY":"282.8235","MEAN_MOTION_DDOT":"0.0000000000000","TLE_LINE2":"2 45770  53.0547 126.4464 0001777  77.2953 282.8235 15.06397665 77362","LAUNCH_DATE":"2020-06-13","SEMIMAJOR_AXIS":"6925.356","ELEMENT_SET_NO":"999","ECCENTRICITY":"0.00017770","PERIAPSIS":"545.990","TLE_LINE1":"1 45770U 20038AS  21306.46501151  .00000870  00000-0  77330-4 0  9990","EPOCH":"2021-11-02T11:09:36.994464","TIME_SYSTEM":"UTC","OBJECT_TYPE":"PAYLOAD","DECAY_DATE":null,"NORAD_CAT_ID":"45770","APOAPSIS":"548.451","MEAN_MOTION":"15.06397665","RA_OF_ASC_NODE":"126.4464","RCS_SIZE":"LARGE","ARG_OF_PERICENTER":"77.2953","REF_FRAME":"TEME"},{"REV_AT_EPOCH":"7739","CENTER_NAME":"EARTH","FILE":"3198350","SITE":"AFETR","GP_ID":"188772653","OBJECT_NAME":"STARLINK-1463","OBJECT_ID":"2020-038AT","EPHEMERIS_TYPE":"0","MEAN_MOTION_DOT":"0.00000041","INCLINATION":"53.0539","COUNTRY_CODE":"US","CLASSIFICATION_TYPE":"U","BSTAR":"0.00002168500000","PERIOD":"95.592","DECAY_DATE":null,"NORAD_CAT_ID":"45771","APOAPSIS":"548.508","MEAN_MOTION":"15.06402525","REF_FRAME":"TEME","ARG_OF_PERICENTER":"77.2214","RCS_SIZE":"LARGE","RA_OF_ASC_NODE":"125.5771","LAUNCH_DATE":"2020-06-13","MEAN_MOTION_DDOT":"0.0000000000000","TLE_LINE2":"2 45771  53.0539 125.5771 0001880  77.2214 282.8985 15.06402525 77397","MEAN_ELEMENT_THEORY":"SGP4","MEAN_ANOMALY":"282.8985","PERIAPSIS":"545.904","SEMIMAJOR_AXIS":"6925.341","ELEMENT_SET_NO":"999","ECCENTRICITY":"0.00018800","TLE_LINE1":"1 45771U 20038AT  21306.65762213  .00000041  00000-0  21685-4 0  9992","TIME_SYSTEM":"UTC","OBJECT_TYPE":"PAYLOAD","EPOCH":"2021-11-02T15:46:58.552032"},{"MEAN_MOTION":"15.06394842","RA_OF_ASC_NODE":"124.4412","RCS_SIZE":"LARGE","REF_FRAME":"TEME","ARG_OF_PERICENTER":"75.3234","DECAY_DATE":null,"APOAPSIS":"548.484","NORAD_CAT_ID":"45772","TLE_LINE1":"1 45772U 20038AU  21306.91195956  .00000309  00000-0  39630-4 0  9992","EPOCH":"2021-11-02T21:53:13.305984","OBJECT_TYPE":"PAYLOAD","TIME_SYSTEM":"UTC","MEAN_ANOMALY":"284.7955","MEAN_ELEMENT_THEORY":"SGP4","MEAN_MOTION_DDOT":"0.0000000000000","TLE_LINE2":"2 45772  53.0536 124.4412 0001812  75.3234 284.7955 15.06394842 77447","LAUNCH_DATE":"2020-06-13","ELEMENT_SET_NO":"999","SEMIMAJOR_AXIS":"6925.364","ECCENTRICITY":"0.00018120","PERIAPSIS":"545.974","GP_ID":"188772905","FILE":"3198350","REV_AT_EPOCH":"7744","CENTER_NAME":"EARTH","SITE":"AFETR","CLASSIFICATION_TYPE":"U","PERIOD":"95.592","BSTAR":"0.00003963000000","INCLINATION":"53.0536","MEAN_MOTION_DOT":"0.00000309","EPHEMERIS_TYPE":"0","OBJECT_ID":"2020-038AU","OBJECT_NAME":"STARLINK-1470","COUNTRY_CODE":"US"},{"APOAPSIS":"548.523","NORAD_CAT_ID":"45773","DECAY_DATE":null,"RCS_SIZE":"LARGE","RA_OF_ASC_NODE":"124.4641","REF_FRAME":"TEME","ARG_OF_PERICENTER":"87.2878","MEAN_MOTION":"15.06396490","ELEMENT_SET_NO":"999","SEMIMAJOR_AXIS":"6925.359","ECCENTRICITY":"0.00018750","PERIAPSIS":"545.926","MEAN_ELEMENT_THEORY":"SGP4","MEAN_ANOMALY":"272.8326","MEAN_MOTION_DDOT":"0.0000000000000","TLE_LINE2":"2 45773  53.0542 124.4641 0001875  87.2878 272.8326 15.06396490 77445","LAUNCH_DATE":"2020-06-13","EPOCH":"2021-11-02T21:42:36.051552","TIME_SYSTEM":"UTC","OBJECT_TYPE":"PAYLOAD","TLE_LINE1":"1 45773U 20038AV  21306.90458393  .00001809  00000-0  14036-3 0  9997","SITE":"AFETR","FILE":"3198350","REV_AT_EPOCH":"7744","CENTER_NAME":"EARTH","GP_ID":"188773655","COUNTRY_CODE":"US","MEAN_MOTION_DOT":"0.00001809","INCLINATION":"53.0542","EPHEMERIS_TYPE":"0","OBJECT_ID":"2020-038AV","OBJECT_NAME":"STARLINK-1482","PERIOD":"95.592","BSTAR":"0.00014036000000","CLASSIFICATION_TYPE":"U"}];
